STARLINK-1857
1 17144C 20088Y   21326.01859747 -.00017020  00000-0 -11402-2 0  3269
2 17144  53.0532 123.6556 0001577  82.2967 223.4512 15.06420311    15
